[{"OBJECT_NAME":"STARLINK-1911","OBJECT_ID":"2020-074L","EPOCH":"2026-03-10T00:00:02.999808","MEAN_MOTION":15.7196626,"ECCENTRICITY":0.00010753,"INCLINATION":53.0465,"RA_OF_ASC_NODE":276.9224,"ARG_OF_PERICENTER":50.1756,"MEAN_ANOMALY":209.8955,"EPHEMERIS_TYPE":0,"CLASSIFICATION_TYPE":"U","NORAD_CAT_ID":46749,"ELEMENT_SET_NO":999,"REV_AT_EPOCH":580,"BSTAR":0.00055147557,"MEAN_MOTION_DOT":0.00073486,"MEAN_MOTION_DDOT":0},{"OBJECT_NAME":"STARLINK-11496 [DTC]","OBJECT_ID":"2024-237A","EPOCH":"2026-03-09T23:26:42.899424","MEAN_MOTION":15.70847833,"ECCENTRICITY":0.00018729,"INCLINATION":43.002,"RA_OF_ASC_NODE":55.2208,"ARG_OF_PERICENTER":247.1009,"MEAN_ANOMALY":112.9661,"EPHEMERIS_TYPE":0,"CLASSIFICATION_TYPE":"U","NORAD_CAT_ID":62267,"ELEMENT_SET_NO":999,"REV_AT_EPOCH":7309,"BSTAR":0.0015744593,"MEAN_MOTION_DOT":0.0020675,"MEAN_MOTION_DDOT":0}]
